{
  "type": "FeatureCollection",
  "features": [
    {
      "type": "Feature",
      "properties": {
        "norad_id": 28054,
        "name": "DMSP 5D-3 F16 (USA 172)",
        "group": "weather",
        "lat": 79.7508463455531,
        "lon": -62.46732591196079,
        "alt_km": 838.3421795698096,
        "timestamp": "2025-12-07T09:35:09.434772+00:00",
        "meta_object_name": "DMSP 5D-3 F16 (USA 172)",
        "meta_object_id": "2003-048A",
        "meta_epoch": "2025-12-06T23:16:51.413664",
        "meta_mean_motion": 14.14421071,
        "meta_eccentricity": 0.00067336,
        "meta_inclination": 99.0049,
        "meta_ra_of_asc_node": 358.3815,
        "meta_arg_of_pericenter": 338.6482,
        "meta_mean_anomaly": 81.2546,
        "meta_ephemeris_type": 0,
        "meta_classification_type": "U",
        "meta_norad_cat_id": 28054,
        "meta_element_set_no": 999,
        "meta_rev_at_epoch": 14231,
        "meta_bstar": 0.00016084776,
        "meta_mean_motion_dot": 2.62e-06,
        "meta_mean_motion_ddot": 0,
        "tle_line1": "1 28054U 03048A   25340.97003951  .00000262  00000+0  16085-3 0  9994",
        "tle_line2": "2 28054  99.0049 358.3815 0006733 338.6482  81.2546 14.14421071142310"
      },
      "geometry": {
        "type": "Point",
        "coordinates": [
          -62.46732591196079,
          79.7508463455531
        ]
      }
    },
    {
      "type": "Feature",
      "properties": {
        "norad_id": 28912,
        "name": "METEOSAT-9 (MSG-2)",
        "group": "weather",
        "lat": -4.447371365007481,
        "lon": -94.45469144166832,
        "alt_km": 35770.59775891655,
        "timestamp": "2025-12-07T09:35:09.434821+00:00",
        "meta_object_name": "METEOSAT-9 (MSG-2)",
        "meta_object_id": "2005-049B",
        "meta_epoch": "2025-12-06T20:43:46.094016",
        "meta_mean_motion": 1.0027315,
        "meta_eccentricity": 0.00039617,
        "meta_inclination": 8.926,
        "meta_ra_of_asc_node": 56.0299,
        "meta_arg_of_pericenter": 188.459,
        "meta_mean_anomaly": 187.9596,
        "meta_ephemeris_type": 0,
        "meta_classification_type": "U",
        "meta_norad_cat_id": 28912,
        "meta_element_set_no": 999,
        "meta_rev_at_epoch": 507,
        "meta_bstar": 0,
        "meta_mean_motion_dot": 1.25e-06,
        "meta_mean_motion_ddot": 0,
        "tle_line1": "1 28912U 05049B   25340.86372794  .00000125  00000+0  00000+0 0  9996",
        "tle_line2": "2 28912   8.9260  56.0299 0003961 188.4590 187.9596  1.00273150  5070"
      },
      "geometry": {
        "type": "Point",
        "coordinates": [
          -94.45469144166832,
          -4.447371365007481
        ]
      }
    },
    {
      "type": "Feature",
      "properties": {
        "norad_id": 29522,
        "name": "DMSP 5D-3 F17 (USA 191)",
        "group": "weather",
        "lat": 15.801130917336216,
        "lon": -15.595271874097772,
        "alt_km": 847.9284263290492,
        "timestamp": "2025-12-07T09:35:09.434839+00:00",
        "meta_object_name": "DMSP 5D-3 F17 (USA 191)",
        "meta_object_id": "2006-050A",
        "meta_epoch": "2025-12-06T23:19:39.084960",
        "meta_mean_motion": 14.14915873,
        "meta_eccentricity": 0.00092405,
        "meta_inclination": 98.7393,
        "meta_ra_of_asc_node": 346.4811,
        "meta_arg_of_pericenter": 242.6623,
        "meta_mean_anomaly": 117.3611,
        "meta_ephemeris_type": 0,
        "meta_classification_type": "U",
        "meta_norad_cat_id": 29522,
        "meta_element_set_no": 999,
        "meta_rev_at_epoch": 98523,
        "meta_bstar": 0.00018634193,
        "meta_mean_motion_dot": 3.17e-06,
        "meta_mean_motion_ddot": 0,
        "tle_line1": "1 29522U 06050A   25340.97198015  .00000317  00000+0  18634-3 0  9990",
        "tle_line2": "2 29522  98.7393 346.4811 0009240 242.6623 117.3611 14.14915873985238"
      },
      "geometry": {
        "type": "Point",
        "coordinates": [
          -15.595271874097772,
          15.801130917336216
        ]
      }
    },
    {
      "type": "Feature",
      "properties": {
        "norad_id": 32958,
        "name": "FENGYUN 3A",
        "group": "weather",
        "lat": 1.7569805875114721,
        "lon": -79.22942935106214,
        "alt_km": 824.8401198711381,
        "timestamp": "2025-12-07T09:35:09.434852+00:00",
        "meta_object_name": "FENGYUN 3A",
        "meta_object_id": "2008-026A",
        "meta_epoch": "2025-12-06T20:02:39.189120",
        "meta_mean_motion": 14.19511742,
        "meta_eccentricity": 0.00081758,
        "meta_inclination": 98.6689,
        "meta_ra_of_asc_node": 280.4865,
        "meta_arg_of_pericenter": 328.837,
        "meta_mean_anomaly": 31.2321,
        "meta_ephemeris_type": 0,
        "meta_classification_type": "U",
        "meta_norad_cat_id": 32958,
        "meta_element_set_no": 999,
        "meta_rev_at_epoch": 90811,
        "meta_bstar": 0.00013539268,
        "meta_mean_motion_dot": 2.42e-06,
        "meta_mean_motion_ddot": 0,
        "tle_line1": "1 32958U 08026A   25340.83517580  .00000242  00000+0  13539-3 0  9995",
        "tle_line2": "2 32958  98.6689 280.4865 0008175 328.8370  31.2321 14.19511742908116"
      },
      "geometry": {
        "type": "Point",
        "coordinates": [
          -79.22942935106214,
          1.7569805875114721
        ]
      }
    },
    {
      "type": "Feature",
      "properties": {
        "norad_id": 35491,
        "name": "GOES 14",
        "group": "weather",
        "lat": 0.5452558270566246,
        "lon": 111.84929488397776,
        "alt_km": 35796.33759135079,
        "timestamp": "2025-12-07T09:35:09.434867+00:00",
        "meta_object_name": "GOES 14",
        "meta_object_id": "2009-033A",
        "meta_epoch": "2025-12-06T21:42:40.451904",
        "meta_mean_motion": 1.00272901,
        "meta_eccentricity": 0.00041556,
        "meta_inclination": 1.1835,
        "meta_ra_of_asc_node": 85.4757,
        "meta_arg_of_pericenter": 153.443,
        "meta_mean_anomaly": 54.3698,
        "meta_ephemeris_type": 0,
        "meta_classification_type": "U",
        "meta_norad_cat_id": 35491,
        "meta_element_set_no": 999,
        "meta_rev_at_epoch": 466,
        "meta_bstar": 0,
        "meta_mean_motion_dot": -6.3e-07,
        "meta_mean_motion_ddot": 0,
        "tle_line1": "1 35491U 09033A   25340.90463486 -.00000063  00000+0  00000+0 0  9999",
        "tle_line2": "2 35491   1.1835  85.4757 0004155 153.4430  54.3698  1.00272901  4666"
      },
      "geometry": {
        "type": "Point",
        "coordinates": [
          111.84929488397776,
          0.5452558270566246
        ]
      }
    },
    {
      "type": "Feature",
      "properties": {
        "norad_id": 35951,
        "name": "DMSP 5D-3 F18 (USA 210)",
        "group": "weather",
        "lat": -64.81197370816618,
        "lon": 118.40542528860331,
        "alt_km": 858.9131616343966,
        "timestamp": "2025-12-07T09:35:09.434880+00:00",
        "meta_object_name": "DMSP 5D-3 F18 (USA 210)",
        "meta_object_id": "2009-057A",
        "meta_epoch": "2025-12-06T22:14:31.251840",
        "meta_mean_motion": 14.14763767,
        "meta_eccentricity": 0.00121244,
        "meta_inclination": 98.8827,
        "meta_ra_of_asc_node": 317.3568,
        "meta_arg_of_pericenter": 77.8531,
        "meta_mean_anomaly": 282.4,
        "meta_ephemeris_type": 0,
        "meta_classification_type": "U",
        "meta_norad_cat_id": 35951,
        "meta_element_set_no": 999,
        "meta_rev_at_epoch": 83240,
        "meta_bstar": 0.00023718194,
        "meta_mean_motion_dot": 4.13e-06,
        "meta_mean_motion_ddot": 0,
        "tle_line1": "1 35951U 09057A   25340.92675060  .00000413  00000+0  23718-3 0  9994",
        "tle_line2": "2 35951  98.8827 317.3568 0012124  77.8531 282.4000 14.14763767832400"
      },
      "geometry": {
        "type": "Point",
        "coordinates": [
          118.40542528860331,
          -64.81197370816618
        ]
      }
    },
    {
      "type": "Feature",
      "properties": {
        "norad_id": 36411,
        "name": "EWS-G2 (GOES 15)",
        "group": "weather",
        "lat": -0.2373914201855784,
        "lon": -78.31257622157423,
        "alt_km": 35763.581416965964,
        "timestamp": "2025-12-07T09:35:09.434893+00:00",
        "meta_object_name": "EWS-G2 (GOES 15)",
        "meta_object_id": "2010-008A",
        "meta_epoch": "2025-12-06T15:40:13.705824",
        "meta_mean_motion": 1.00268345,
        "meta_eccentricity": 0.000602,
        "meta_inclination": 0.7984,
        "meta_ra_of_asc_node": 86.0287,
        "meta_arg_of_pericenter": 172.4317,
        "meta_mean_anomaly": 113.7488,
        "meta_ephemeris_type": 0,
        "meta_classification_type": "U",
        "meta_norad_cat_id": 36411,
        "meta_element_set_no": 999,
        "meta_rev_at_epoch": 5770,
        "meta_bstar": 0,
        "meta_mean_motion_dot": 4.4e-07,
        "meta_mean_motion_ddot": 0,
        "tle_line1": "1 36411U 10008A   25340.65293641  .00000044  00000+0  00000+0 0  9990",
        "tle_line2": "2 36411   0.7984  86.0287 0006020 172.4317 113.7488  1.00268345 57709"
      },
      "geometry": {
        "type": "Point",
        "coordinates": [
          -78.31257622157423,
          -0.2373914201855784
        ]
      }
    }
  ]
}